     3.03           N: GNSS NAV DATA    M: Mixed            RINEX VERSION / TYPE
sbp2rinex v2.2 (RTKL                    20210504 171525 UTC PGM / RUN BY / DATE 
log: 2020-06-04-US-MTV-2.sbp                                COMMENT             
format: Swift Navigation SBP, option: CONVBASE,EPHALL,OBSALLCOMMENT             
                                                            END OF HEADER       
C16 2020  6  4 23  0  0 -.625359010883E-03  .950262091237E-11  .000000000000E+00
      .100000000000E+01 -.172640625000E+03  .170399954985E-08 -.746070148999E+00
     -.623147934675E-05  .288711837493E-02  .722892582417E-05  .649340723419E+04
      .428400000000E+06 -.894069671631E-07 -.116171991816E+01  .591389834881E-07
      .959768359279E+00  .139531250000E+02 -.257500517345E+01 -.208472969450E-08
     -.112790412459E-08  .120000000000E+02  .752000000000E+03  .100000000000E+01
      .200000000000E+01  .000000000000E+00 -.300000002618E-08  .419999990342E-08
      .430344000000E+06  .000000000000E+00
G17 2020  6  4 23 59 44  .275763217360E-03  .591171556152E-11  .000000000000E+00
      .900000000000E+01 -.102093750000E+03  .432196574151E-08 -.120588751280E+00
     -.553205609322E-05  .132132894360E-01  .223703682423E-05  .515370778656E+04
      .431984000000E+06 -.210478901863E-06  .195062166795E+01  .912696123123E-07
      .983707789184E+00  .350562500000E+03 -.164245260418E+01 -.851071164816E-08
     -.203937066226E-09  .200000000000E+01  .210800000000E+04  .100000000000E+01
      .200000000000E+01  .000000000000E+00 -.107102096081E-07  .900000000000E+01
      .430358000000E+06  .400000000000E+01
R17 2020  6  4 23 45  0  .330469571054E-03  .272848410532E-11  .864000000000E+05
      .667048535156E+04 -.234887981415E+01  .372529029846E-08  .000000000000E+00
      .822799365234E+04  .214522838593E+01 -.931322574615E-09  .400000000000E+01
     -.232018081055E+05  .822305679321E-01  .931322574615E-09  .240000000000E+04
G18 2020  6  5  0  0  0  .210857018828E-03  .111413100967E-10  .000000000000E+00
      .112000000000E+03 -.106406250000E+03  .422017578726E-08 -.160360094810E+01
     -.557862222195E-05  .550545286387E-03  .116042792797E-04  .515372873497E+04
      .432000000000E+06  .558793544769E-08  .296490120756E+01 -.149011611938E-07
      .964260129282E+00  .162187500000E+03  .257650025232E+01 -.775353725166E-08
      .175364447490E-09  .200000000000E+01  .210800000000E+04  .100000000000E+01
      .200000000000E+01  .000000000000E+00 -.791624188423E-08  .112000000000E+03
      .430358000000E+06  .400000000000E+01
R18 2020  6  4 23 45  0  .377418473363E-04  .909494701773E-12  .864000000000E+05
      .178685415039E+05 -.187181758881E+01  .651925802231E-08  .000000000000E+00
     -.561439648437E+04  .147375488281E+01  .000000000000E+00 -.300000000000E+01
     -.173369682617E+05 -.239999008179E+01  .000000000000E+00  .240000000000E+04
C18 2020  6  1  6  0  0 -.175359309651E-03 -.252109444432E-10  .000000000000E+00
      .100000000000E+01 -.703593750000E+02  .425803450709E-08 -.242469535276E+01
     -.343285501003E-05  .150704756379E-02  .638375058770E-05  .528261633110E+04
      .108000000000E+06 -.474974513054E-07 -.195885493579E+01  .908039510250E-07
      .960700083026E+00  .229921875000E+03 -.162959125895E+01 -.706636577107E-08
     -.163221084528E-09  .120000000000E+02  .752000000000E+03  .100000000000E+01
      .200000000000E+01  .000000000000E+00 -.233000001515E-07 -.233000001515E-07
      .430344000000E+06  .100000000000E+01
E18 2020  6  4 23 20  0 -.113857752876E-02 -.141540112963E-10  .000000000000E+00
      .760000000000E+02 -.111343750000E+03  .192722313372E-08 -.175875395219E+01
     -.442750751972E-05  .166951035848E+00  .371411442757E-05  .528935091782E+04
      .429600000000E+06  .698119401932E-05  .197231637734E+01  .226870179176E-05
      .882418965023E+00  .226218750000E+03  .172383000586E+01 -.149184785574E-08
     -.566452166435E-09  .500000000000E+01  .210800000000E+04  .100000000000E+01
      .312000000000E+01  .000000000000E+00 -.349245965481E-08 -.419095158577E-08
      .430358000000E+06  .000000000000E+00
G19 2020  6  5  0  0  0 -.149500556290E-03  .511590769747E-11  .000000000000E+00
      .850000000000E+02 -.123781250000E+03  .428767859902E-08  .253141663397E+01
     -.647269189358E-05  .946803775150E-02  .175461173058E-05  .515369006157E+04
      .432000000000E+06  .106170773506E-06  .199626745500E+01 -.242143869400E-07
      .981927483712E+00  .357500000000E+03  .162996326878E+01 -.812140971788E-08
     -.299655338991E-09  .200000000000E+01  .210800000000E+04  .100000000000E+01
      .200000000000E+01  .000000000000E+00 -.153668224812E-07  .850000000000E+02
      .430358000000E+06  .400000000000E+01
R19 2020  6  4 23 45  0 -.964859500527E-04 -.909494701773E-12  .864000000000E+05
      .199685068359E+05 -.439567565918E+00  .558793544769E-08  .000000000000E+00
     -.156469101562E+05  .495996475220E-01  .931322574615E-09  .300000000000E+01
     -.266789062500E+04 -.358715248108E+01 -.186264514923E-08  .240000000000E+04
C19 2020  6  4 23  0  0  .434075715020E-03  .119424470313E-10  .000000000000E+00
      .100000000000E+01  .271093750000E+02  .428803575676E-08  .431998051321E+00
      .131735578179E-05  .101639481727E-02  .518001616001E-05  .528261068344E+04
      .428400000000E+06 -.679865479469E-07 -.196065092228E+01  .325962901115E-08
      .963176008970E+00  .259171875000E+03 -.115089529283E+01 -.694850371878E-08
      .347514475373E-09  .120000000000E+02  .752000000000E+03  .100000000000E+01
      .200000000000E+01  .000000000000E+00  .123000001295E-07  .123000001295E-07
      .430344000000E+06  .100000000000E+01
E19 2020  6  4 23 20  0 -.315978773870E-02 -.584279291616E-09  .000000000000E+00
      .760000000000E+02 -.177812500000E+02  .383623122300E-08 -.154986445897E+01
     -.931322574615E-06  .307204667479E-03  .336766242981E-05  .544060168457E+04
      .429600000000E+06 -.763684511185E-07 -.151423864989E+01 -.689178705215E-07
      .958840477155E+00  .262343750000E+03 -.156285232614E+01 -.588488798635E-08
     -.336799743347E-09  .500000000000E+01  .210800000000E+04  .100000000000E+01
      .312000000000E+01  .000000000000E+00 -.558793544769E-08 -.628642737865E-08
      .430358000000E+06  .000000000000E+00
G20 2020  6  5  0  0  0  .527574215084E-03 -.113686837722E-12  .000000000000E+00
      .890000000000E+02  .277187500000E+02  .525129016589E-08 -.271843630798E+01
      .154413282871E-05  .516635505483E-02  .885128974915E-05  .515364814377E+04
      .432000000000E+06 -.949949026108E-07 -.242962854659E+01  .372529029846E-08
      .934136832011E+00  .195875000000E+03  .266733521164E+01 -.817819779762E-08
      .649669918503E-09  .200000000000E+01  .210800000000E+04  .100000000000E+01
      .200000000000E+01  .000000000000E+00 -.884756445885E-08  .890000000000E+02
      .430358000000E+06  .400000000000E+01
R20 2020  6  4 23 45  0 -.413456000388E-03  .000000000000E+00  .864000000000E+05
      .949563085937E+04  .153558063507E+01  .000000000000E+00  .000000000000E+00
     -.175266816406E+05 -.156569194794E+01  .186264514923E-08  .200000000000E+01
      .159467578125E+05 -.263118553162E+01 -.279396772385E-08  .240000000000E+04
C20 2020  6  4 23  0  0 -.859313062392E-03  .824229573482E-11  .000000000000E+00
      .100000000000E+01  .264531250000E+02  .429875048878E-08  .830674619218E+00
      .120932236314E-05  .954363145865E-03  .522704795003E-05  .528261131287E+04
      .428400000000E+06 -.195577740669E-07 -.196003149351E+01 -.279396772385E-07
      .963174922022E+00  .254140625000E+03 -.782847429675E+00 -.691350226083E-08
      .289297764699E-09  .120000000000E+02  .752000000000E+03  .100000000000E+01
      .200000000000E+01  .000000000000E+00  .231000001349E-07  .231000001349E-07
      .430344000000E+06  .100000000000E+01
G21 2020  6  5  0  0  0  .753113999963E-05  .477484718431E-11  .000000000000E+00
      .300000000000E+02 -.127531250000E+03  .436339603867E-08  .200214494782E+01
     -.661984086037E-05  .238730993588E-01  .103935599327E-04  .515514419937E+04
      .432000000000E+06  .445172190666E-06  .287351711560E+01 -.117346644402E-06
      .953580508387E+00  .174625000000E+03 -.132422364819E+01 -.753959976888E-08
      .642883921553E-11  .200000000000E+01  .210800000000E+04  .100000000000E+01
      .200000000000E+01  .000000000000E+00 -.102445483208E-07  .300000000000E+02
      .430358000000E+06  .400000000000E+01
R21 2020  6  4 23 45  0 -.129180029035E-03 -.272848410532E-11  .864000000000E+05
     -.743683496094E+04  .236630058289E+01 -.372529029846E-08  .000000000000E+00
     -.742409814453E+04 -.213545227051E+01  .931322574615E-09  .400000000000E+01
      .232381088867E+05  .729722976685E-01 -.931322574615E-09  .240000000000E+04
C21 2020  6  4 23  0  0 -.486691482365E-03 -.478967976392E-10  .000000000000E+00
      .100000000000E+01  .261562500000E+02  .439875465436E-08 -.134742870492E+01
      .134343281388E-05  .871410244144E-03  .476511195302E-05  .528261155128E+04
      .428400000000E+06  .232830643654E-07 -.195813073575E+01 -.814907252789E-07
      .962457270003E+00  .262515625000E+03 -.942226839210E+00 -.705029367303E-08
      .265725354242E-09  .120000000000E+02  .752000000000E+03  .100000000000E+01
      .200000000000E+01  .000000000000E+00  .145000003116E-07  .145000003116E-07
      .430344000000E+06  .100000000000E+01
E21 2020  6  4 23 20  0 -.602779269684E-03 -.211741735257E-11  .000000000000E+00
      .760000000000E+02  .207718750000E+03  .251510476421E-08 -.475858172763E+00
      .965967774391E-05  .105974962935E-03  .679679214954E-05  .544062681580E+04
      .429600000000E+06 -.279396772385E-07  .580058620833E+00 -.763684511185E-07
      .982602215178E+00  .205718750000E+03  .224658803317E+01 -.546237038679E-08
      .297869550320E-09  .500000000000E+01  .210800000000E+04  .100000000000E+01
      .312000000000E+01  .000000000000E+00  .232830643654E-09  .000000000000E+00
      .430358000000E+06  .000000000000E+00
